[{"OBJECT_NAME":"STARLINK-5969","OBJECT_ID":"2023-042H","EPOCH":"2026-03-08T23:59:54.136896","MEAN_MOTION":15.02533107,"ECCENTRICITY":0.00017063,"INCLINATION":43.0051,"RA_OF_ASC_NODE":60.1124,"ARG_OF_PERICENTER":263.6651,"MEAN_ANOMALY":96.3997,"EPHEMERIS_TYPE":0,"CLASSIFICATION_TYPE":"U","NORAD_CAT_ID":55993,"ELEMENT_SET_NO":999,"REV_AT_EPOCH":16280,"BSTAR":3.2521717e-5,"MEAN_MOTION_DOT":2.36e-6,"MEAN_MOTION_DDOT":0},{"OBJECT_NAME":"COSMOS 2251 DEB","OBJECT_ID":"1993-036AXJ","EPOCH":"2026-03-07T16:14:39.475392","MEAN_MOTION":15.02350149,"ECCENTRICITY":0.00052276,"INCLINATION":74.0329,"RA_OF_ASC_NODE":161.7612,"ARG_OF_PERICENTER":248.7206,"MEAN_ANOMALY":111.3424,"EPHEMERIS_TYPE":0,"CLASSIFICATION_TYPE":"U","NORAD_CAT_ID":36047,"ELEMENT_SET_NO":999,"REV_AT_EPOCH":67212,"BSTAR":0.0041103158,"MEAN_MOTION_DOT":0.00054783,"MEAN_MOTION_DDOT":0}]
